{
  "links" : {
    "next" : "https://api.nasa.gov/neo/rest/v1/feed?start_date=2005-04-23&end_date=2005-04-23&detailed=true&api_key=t0TVs3DtDT2H8Oy2Zy8m2eVrNsAVKAexjcZXUckd",
    "prev" : "https://api.nasa.gov/neo/rest/v1/feed?start_date=2005-04-21&end_date=2005-04-21&detailed=true&api_key=t0TVs3DtDT2H8Oy2Zy8m2eVrNsAVKAexjcZXUckd",
    "self" : "https://api.nasa.gov/neo/rest/v1/feed?start_date=2005-04-22&end_date=2005-04-22&detailed=true&api_key=t0TVs3DtDT2H8Oy2Zy8m2eVrNsAVKAexjcZXUckd"
  },
  "element_count" : 9,
  "near_earth_objects" : {
    "2005-04-22" : [ {
      "links" : {
        "self" : "https://api.nasa.gov/neo/rest/v1/neo/3561031?api_key=t0TVs3DtDT2H8Oy2Zy8m2eVrNsAVKAexjcZXUckd"
      },
      "neo_reference_id" : "3561031",
      "name" : "(2011 GF3)",
      "nasa_jpl_url" : "http://ssd.jpl.nasa.gov/sbdb.cgi?sstr=3561031",
      "absolute_magnitude_h" : 22.4,
      "estimated_diameter" : {
        "kilometers" : {
          "estimated_diameter_min" : 0.0880146521,
          "estimated_diameter_max" : 0.1968067451
        },
        "meters" : {
          "estimated_diameter_min" : 88.0146520901,
          "estimated_diameter_max" : 196.8067450894
        },
        "miles" : {
          "estimated_diameter_min" : 0.0546897524,
          "estimated_diameter_max" : 0.122290004
        },
        "feet" : {
          "estimated_diameter_min" : 288.7619911632,
          "estimated_diameter_max" : 645.6914415591
        }
      },
      "is_potentially_hazardous_asteroid" : false,
      "close_approach_data" : [ {
        "close_approach_date" : "2005-04-22",
        "epoch_date_close_approach" : 1114153200000,
        "relative_velocity" : {
          "kilometers_per_second" : "14.1532250983",
          "kilometers_per_hour" : "50951.6103540006",
          "miles_per_hour" : "31659.3492224622"
        },
        "miss_distance" : {
          "astronomical" : "0.1875261938",
          "lunar" : "72.9476928711",
          "kilometers" : "28053520",
          "miles" : "17431650"
        },
        "orbiting_body" : "Earth"
      } ],
      "orbital_data" : {
        "orbit_id" : "7",
        "orbit_determination_date" : "2017-04-06 08:53:51",
        "orbit_uncertainty" : "7",
        "minimum_orbit_intersection" : ".162496",
        "jupiter_tisserand_invariant" : "6.896",
        "epoch_osculation" : "2458000.5",
        "eccentricity" : ".545330351576744",
        "semi_major_axis" : ".8324753022388277",
        "inclination" : "15.80999538670596",
        "ascending_node_longitude" : "183.6854327271124",
        "orbital_period" : "277.4313042307207",
        "perihelion_distance" : ".3785012529899716",
        "perihelion_argument" : "178.1441716315962",
        "aphelion_distance" : "1.286449351487684",
        "perihelion_time" : "2458004.521745601070",
        "mean_anomaly" : "354.7813084020933",
        "mean_motion" : "1.297618525776069",
        "equinox" : "J2000"
      }
    }, {
      "links" : {
        "self" : "https://api.nasa.gov/neo/rest/v1/neo/3697798?api_key=t0TVs3DtDT2H8Oy2Zy8m2eVrNsAVKAexjcZXUckd"
      },
      "neo_reference_id" : "3697798",
      "name" : "(2014 WZ120)",
      "nasa_jpl_url" : "http://ssd.jpl.nasa.gov/sbdb.cgi?sstr=3697798",
      "absolute_magnitude_h" : 20.5,
      "estimated_diameter" : {
        "kilometers" : {
          "estimated_diameter_min" : 0.2111324448,
          "estimated_diameter_max" : 0.4721064988
        },
        "meters" : {
          "estimated_diameter_min" : 211.1324447897,
          "estimated_diameter_max" : 472.1064988055
        },
        "miles" : {
          "estimated_diameter_min" : 0.1311915784,
          "estimated_diameter_max" : 0.2933532873
        },
        "feet" : {
          "estimated_diameter_min" : 692.6917701639,
          "estimated_diameter_max" : 1548.9058855411
        }
      },
      "is_potentially_hazardous_asteroid" : true,
      "close_approach_data" : [ {
        "close_approach_date" : "2005-04-22",
        "epoch_date_close_approach" : 1114153200000,
        "relative_velocity" : {
          "kilometers_per_second" : "21.8767350475",
          "kilometers_per_hour" : "78756.2461709802",
          "miles_per_hour" : "48936.0686277404"
        },
        "miss_distance" : {
          "astronomical" : "0.3140743581",
          "lunar" : "122.1749267578",
          "kilometers" : "46984856",
          "miles" : "29195036"
        },
        "orbiting_body" : "Earth"
      } ],
      "orbital_data" : {
        "orbit_id" : "19",
        "orbit_determination_date" : "2017-08-10 06:18:36",
        "orbit_uncertainty" : "3",
        "minimum_orbit_intersection" : ".0308154",
        "jupiter_tisserand_invariant" : "3.288",
        "epoch_osculation" : "2458000.5",
        "eccentricity" : ".6381568642898425",
        "semi_major_axis" : "2.213939291750271",
        "inclination" : "20.91754977272365",
        "ascending_node_longitude" : "244.8862218011385",
        "orbital_period" : "1203.225393154606",
        "perihelion_distance" : ".8010987355988434",
        "perihelion_argument" : "245.1850183440139",
        "aphelion_distance" : "3.626779847901699",
        "perihelion_time" : "2458238.393544624467",
        "mean_anomaly" : "288.8232474546822",
        "mean_motion" : ".2991958132267764",
        "equinox" : "J2000"
      }
    }, {
      "links" : {
        "self" : "https://api.nasa.gov/neo/rest/v1/neo/3733852?api_key=t0TVs3DtDT2H8Oy2Zy8m2eVrNsAVKAexjcZXUckd"
      },
      "neo_reference_id" : "3733852",
      "name" : "(2015 VG64)",
      "nasa_jpl_url" : "http://ssd.jpl.nasa.gov/sbdb.cgi?sstr=3733852",
      "absolute_magnitude_h" : 21.7,
      "estimated_diameter" : {
        "kilometers" : {
          "estimated_diameter_min" : 0.1214940408,
          "estimated_diameter_max" : 0.2716689341
        },
        "meters" : {
          "estimated_diameter_min" : 121.4940407996,
          "estimated_diameter_max" : 271.6689340891
        },
        "miles" : {
          "estimated_diameter_min" : 0.0754928736,
          "estimated_diameter_max" : 0.1688071972
        },
        "feet" : {
          "estimated_diameter_min" : 398.6025088171,
          "estimated_diameter_max" : 891.3023057169
        }
      },
      "is_potentially_hazardous_asteroid" : false,
      "close_approach_data" : [ {
        "close_approach_date" : "2005-04-22",
        "epoch_date_close_approach" : 1114153200000,
        "relative_velocity" : {
          "kilometers_per_second" : "12.9558326587",
          "kilometers_per_hour" : "46640.9975714482",
          "miles_per_hour" : "28980.9020743257"
        },
        "miss_distance" : {
          "astronomical" : "0.1750581527",
          "lunar" : "68.0976257324",
          "kilometers" : "26188328",
          "miles" : "16272672"
        },
        "orbiting_body" : "Earth"
      } ],
      "orbital_data" : {
        "orbit_id" : "15",
        "orbit_determination_date" : "2017-04-06 08:30:54",
        "orbit_uncertainty" : "6",
        "minimum_orbit_intersection" : ".0708977",
        "jupiter_tisserand_invariant" : "4.511",
        "epoch_osculation" : "2458000.5",
        "eccentricity" : ".5676749211079454",
        "semi_major_axis" : "1.424697775811822",
        "inclination" : "4.279857051329726",
        "ascending_node_longitude" : "310.86740562",
        "orbital_period" : "621.130057986921",
        "perihelion_distance" : ".6159325783251806",
        "perihelion_argument" : "345.0998721913597",
        "aphelion_distance" : "2.233462973298463",
        "perihelion_time" : "2457883.715185146874",
        "mean_anomaly" : "67.68716600736558",
        "mean_motion" : ".5795887598271414",
        "equinox" : "J2000"
      }
    } ]
  }
}